#cP2005  4 23 00 00 00.00000000    2880 *POS* WGS84 FIT DLR*
## 1319 518400.00000000    30.00000000 53483 0.0000000000000
+    1   L06  0  0  0  0  0  0  0  0  0  0  0  0  0  0  0  0
+          0  0  0  0  0  0  0  0  0  0  0  0  0  0  0  0  0
+          0  0  0  0  0  0  0  0  0  0  0  0  0  0  0  0  0
+          0  0  0  0  0  0  0  0  0  0  0  0  0  0  0  0  0
+          0  0  0  0  0  0  0  0  0  0  0  0  0  0  0  0  0
++         0  0  0  0  0  0  0  0  0  0  0  0  0  0  0  0  0
++         0  0  0  0  0  0  0  0  0  0  0  0  0  0  0  0  0
++         0  0  0  0  0  0  0  0  0  0  0  0  0  0  0  0  0
++         0  0  0  0  0  0  0  0  0  0  0  0  0  0  0  0  0
++         0  0  0  0  0  0  0  0  0  0  0  0  0  0  0  0  0
%c cc cc ccc ccc cccc cccc cccc cccc ccccc ccccc ccccc ccccc
%c cc cc ccc ccc cccc cccc cccc cccc ccccc ccccc ccccc ccccc
%f   .0000000   .000000000   .00000000000   .000000000000000
%f   .0000000   .000000000   .00000000000   .000000000000000
%i    0    0    0    0      0      0      0      0         0
%i    0    0    0    0      0      0      0      0         0
/* NOTE: CCCCCCCCCCCCCCCCCCCCCCCCCCCCCCCCCCCCCCCCCCCCCCCCCCC
/* CCCCCCCCCCCCCCCCCCCCCCCCCCCCCCCCCCCCCCCCCCCCCCCCCCCCCCCCC
/* CCCCCCCCCCCCCCCCCCCCCCCCCCCCCCCCCCCCCCCCCCCCCCCCCCCCCCCCC
/* CCCCCCCCCCCCCCCCCCCCCCCCCCCCCCCCCCCCCCCCCCCCCCCCCCCCCCCCC
*  2005 04 23 03 06 00.00000000
PL06   3637.960092  -5669.408717   -224.091022 999999.000000
*  2005 04 23 03 06 30.00000000
PL06   3636.718098  -5674.283533      6.373484 999999.000000
*  2005 04 23 03 07 00.00000000
PL06   3631.219295  -5672.512577    236.830398 999999.000000
*  2005 04 23 03 07 30.00000000
PL06   3621.498703  -5664.078556    467.008473 999999.000000
*  2005 04 23 03 08 00.00000000
PL06   3607.596401  -5648.972225    696.636722 999999.000000
*  2005 04 23 03 08 30.00000000
PL06   3589.557456  -5627.192426    925.444761 999999.000000
*  2005 04 23 03 09 00.00000000
PL06   3567.431831  -5598.746121   1153.163140 999999.000000
*  2005 04 23 03 09 30.00000000
PL06   3541.274291  -5563.648394   1379.523697 999999.000000
*  2005 04 23 03 10 00.00000000
PL06   3511.144281  -5521.922429   1604.259875 999999.000000
*  2005 04 23 03 10 30.00000000
PL06   3477.105822  -5473.599506   1827.107022 999999.000000
*  2005 04 23 03 11 00.00000000
PL06   3439.227403  -5418.718987   2047.802714 999999.000000
*  2005 04 23 03 11 30.00000000
PL06   3397.581858  -5357.328285   2266.087070 999999.000000
*  2005 04 23 03 12 00.00000000
PL06   3352.246243  -5289.482840   2481.703059 999999.000000
*  2005 04 23 03 12 30.00000000
PL06   3303.301723  -5215.246075   2694.396827 999999.000000
*  2005 04 23 03 13 00.00000000
PL06   3250.833434  -5134.689320   2903.918009 999999.000000
*  2005 04 23 03 13 30.00000000
PL06   3194.930335  -5047.891737   3110.020032 999999.000000
*  2005 04 23 03 14 00.00000000
PL06   3135.685066  -4954.940225   3312.460398 999999.000000
*  2005 04 23 03 14 30.00000000
PL06   3073.193804  -4855.929342   3511.000966 999999.000000
*  2005 04 23 03 15 00.00000000
PL06   3007.556120  -4750.961201   3705.408242 999999.000000
*  2005 04 23 03 15 30.00000000
PL06   2938.874829  -4640.145362   3895.453664 999999.000000
*  2005 04 23 03 16 00.00000000
PL06   2867.255828  -4523.598701   4080.913873 999999.000000
*  2005 04 23 03 16 30.00000000
PL06   2792.807932  -4401.445285   4261.570983 999999.000000
*  2005 04 23 03 17 00.00000000
PL06   2715.642714  -4273.816222   4437.212834 999999.000000
*  2005 04 23 03 17 30.00000000
PL06   2635.874325  -4140.849504   4607.633235 999999.000000
*  2005 04 23 03 18 00.00000000
PL06   2553.619336  -4002.689852   4772.632190 999999.000000
*  2005 04 23 03 18 30.00000000
PL06   2468.996577  -3859.488568   4932.016131 999999.000000
*  2005 04 23 03 19 00.00000000
PL06   2382.126967  -3711.403353   5085.598161 999999.000000
*  2005 04 23 03 19 30.00000000
PL06   2293.133329  -3558.598127   5233.198273 999999.000000
*  2005 04 23 03 20 00.00000000
PL06   2202.140214  -3401.242830   5374.643552 999999.000000
*  2005 04 23 03 20 30.00000000
PL06   2109.273720  -3239.513222   5509.768372 999999.000000
*  2005 04 23 03 21 00.00000000
PL06   2014.661323  -3073.590675   5638.414571 999999.000000
*  2005 04 23 03 21 30.00000000
PL06   1918.431695  -2903.661970   5760.431629 999999.000000
*  2005 04 23 03 22 00.00000000
PL06   1820.714542  -2729.919081   5875.676834 999999.000000
*  2005 04 23 03 22 30.00000000
PL06   1721.640423  -2552.558955   5984.015446 999999.000000
*  2005 04 23 03 23 00.00000000
PL06   1621.340581  -2371.783280   6085.320846 999999.000000
*  2005 04 23 03 23 30.00000000
PL06   1519.946764  -2187.798261   6179.474677 999999.000000
*  2005 04 23 03 24 00.00000000
PL06   1417.591050  -2000.814381   6266.366984 999999.000000
*  2005 04 23 03 24 30.00000000
PL06   1314.405674  -1811.046147   6345.896335 999999.000000
*  2005 04 23 03 25 00.00000000
PL06   1210.522860  -1618.711839   6417.969923 999999.000000
*  2005 04 23 03 25 30.00000000
PL06   1106.074663  -1424.033259   6482.503669 999999.000000
*  2005 04 23 03 26 00.00000000
PL06   1001.192788  -1227.235476   6539.422314 999999.000000
*  2005 04 23 03 26 30.00000000
PL06    896.008425  -1028.546562   6588.659499 999999.000000
*  2005 04 23 03 27 00.00000000
PL06    790.652091   -828.197331   6630.157840 999999.000000
*  2005 04 23 03 27 30.00000000
PL06    685.253468   -626.421064   6663.868993 999999.000000
*  2005 04 23 03 28 00.00000000
PL06    579.941235   -423.453240   6689.753705 999999.000000
*  2005 04 23 03 28 30.00000000
PL06    474.842914   -219.531266   6707.781844 999999.000000
*  2005 04 23 03 29 00.00000000
PL06    370.084732    -14.894196   6717.932443 999999.000000
*  2005 04 23 03 29 30.00000000
PL06    265.791457    190.217544   6720.193711 999999.000000
*  2005 04 23 03 30 00.00000000
PL06    162.086257    395.562441   6714.563056 999999.000000
*  2005 04 23 03 30 30.00000000
PL06     59.090547    600.898172   6701.047083 999999.000000
*  2005 04 23 03 31 00.00000000
PL06    -43.076149    805.981896   6679.661590 999999.000000
*  2005 04 23 03 31 30.00000000
PL06   -144.296333   1010.570537   6650.431550 999999.000000
*  2005 04 23 03 32 00.00000000
PL06   -244.454672   1214.421071   6613.391077 999999.000000
*  2005 04 23 03 32 30.00000000
PL06   -343.438126   1417.290812   6568.583395 999999.000000
*  2005 04 23 03 33 00.00000000
PL06   -441.136069   1618.937703   6516.060784 999999.000000
*  2005 04 23 03 33 30.00000000
PL06   -537.440411   1819.120601   6455.884532 999999.000000
*  2005 04 23 03 34 00.00000000
PL06   -632.245727   2017.599567   6388.124853 999999.000000
*  2005 04 23 03 34 30.00000000
PL06   -725.449363   2214.136140   6312.860812 999999.000000
*  2005 04 23 03 35 00.00000000
PL06   -816.951549   2408.493618   6230.180259 999999.000000
*  2005 04 23 03 35 30.00000000
PL06   -906.655512   2600.437362   6140.179737 999999.000000
*  2005 04 23 03 36 00.00000000
PL06   -994.467577   2789.735084   6042.964371 999999.000000
*  2005 04 23 03 36 30.00000000
PL06  -1080.297272   2976.157137   5938.647748 999999.000000
*  2005 04 23 03 37 00.00000000
PL06  -1164.057415   3159.476798   5827.351779 999999.000000
*  2005 04 23 03 37 30.00000000
PL06  -1245.664205   3339.470524   5709.206556 999999.000000
*  2005 04 23 03 38 00.00000000
PL06  -1325.037295   3515.918223   5584.350219 999999.000000
*  2005 04 23 03 38 30.00000000
PL06  -1402.099873   3688.603538   5452.928819 999999.000000
*  2005 04 23 03 39 00.00000000
PL06  -1476.778732   3857.314125   5315.096155 999999.000000
*  2005 04 23 03 39 30.00000000
PL06  -1549.004347   4021.841925   5171.013593 999999.000000
*  2005 04 23 03 40 00.00000000
PL06  -1618.710938   4181.983427   5020.849882 999999.000000
*  2005 04 23 03 40 30.00000000
PL06  -1685.836532   4337.539919   4864.780967 999999.000000
*  2005 04 23 03 41 00.00000000
PL06  -1750.323017   4488.317755   4702.989786 999999.000000
*  2005 04 23 03 41 30.00000000
PL06  -1812.116184   4634.128599   4535.666056 999999.000000
*  2005 04 23 03 42 00.00000000
PL06  -1871.165767   4774.789665   4363.006057 999999.000000
*  2005 04 23 03 42 30.00000000
PL06  -1927.425479   4910.123955   4185.212416 999999.000000
*  2005 04 23 03 43 00.00000000
PL06  -1980.853048   5039.960509   4002.493876 999999.000000
*  2005 04 23 03 43 30.00000000
PL06  -2031.410249   5164.134631   3815.065045 999999.000000
*  2005 04 23 03 44 00.00000000
PL06  -2079.062925   5282.488102   3623.146132 999999.000000
*  2005 04 23 03 44 30.00000000
PL06  -2123.780999   5394.869384   3426.962689 999999.000000
*  2005 04 23 03 45 00.00000000
PL06  -2165.538491   5501.133815   3226.745348 999999.000000
*  2005 04 23 03 45 30.00000000
PL06  -2204.313509   5601.143815   3022.729553 999999.000000
*  2005 04 23 03 46 00.00000000
PL06  -2240.088258   5694.769071   2815.155283 999999.000000
*  2005 04 23 03 46 30.00000000
PL06  -2272.849026   5781.886720   2604.266761 999999.000000
*  2005 04 23 03 47 00.00000000
PL06  -2302.586174   5862.381519   2390.312163 999999.000000
*  2005 04 23 03 47 30.00000000
PL06  -2329.294107   5936.146001   2173.543314 999999.000000
*  2005 04 23 03 48 00.00000000
PL06  -2352.971255   6003.080629   1954.215391 999999.000000
*  2005 04 23 03 48 30.00000000
PL06  -2373.620040   6063.093933   1732.586615 999999.000000
*  2005 04 23 03 49 00.00000000
PL06  -2391.246838   6116.102637   1508.917938 999999.000000
*  2005 04 23 03 49 30.00000000
PL06  -2405.861938   6162.031780   1283.472736 999999.000000
*  2005 04 23 03 50 00.00000000
PL06  -2417.479497   6200.814831   1056.516484 999999.000000
*  2005 04 23 03 50 30.00000000
PL06  -2426.117487   6232.393782    828.316433 999999.000000
*  2005 04 23 03 51 00.00000000
PL06  -2431.797635   6256.719242    599.141287 999999.000000
*  2005 04 23 03 51 30.00000000
PL06  -2434.545361   6273.750503    369.260870 999999.000000
*  2005 04 23 03 52 00.00000000
PL06  -2434.389708   6283.455604    138.945812 999999.000000
EOF
